start=new Date('2023-02-10T00:00:00.000Z').valueOf();
sats=[{"TLE_LINE1":"1 47154U 20088AJ  23040.86160654 -.00000874  00000-0 -39807-4 0  9996","APOAPSIS":"547.999","DECAY_DATE":null,"MEAN_MOTION":"15.06396672","LAUNCH_DATE":"2020-11-25","RA_OF_ASC_NODE":"296.6726","ECCENTRICITY":"0.00011200","OBJECT_TYPE":"PAYLOAD","GP_ID":"224956930","SITE":"AFETR","PERIOD":"95.592","INCLINATION":"53.0549","CLASSIFICATION_TYPE":"U","OBJECT_NAME":"STARLINK-1868","ARG_OF_PERICENTER":"91.4278","EPOCH":"2023-02-09T20:40:42.805056","BSTAR":"-0.00003980700000","RCS_SIZE":"LARGE","ELEMENT_SET_NO":"999","MEAN_ANOMALY":"268.6839","EPHEMERIS_TYPE":"0","NORAD_CAT_ID":"47154","REV_AT_EPOCH":"12259","MEAN_ELEMENT_THEORY":"SGP4","FILE":"3783241","SEMIMAJOR_AXIS":"6925.359","COUNTRY_CODE":"US","MEAN_MOTION_DOT":"-0.00000874","TLE_LINE2":"2 47154  53.0549 296.6726 0001120  91.4278 268.6839 15.06396672122598","TIME_SYSTEM":"UTC","REF_FRAME":"TEME","MEAN_MOTION_DDOT":"0.0000000000000","OBJECT_ID":"2020-088AJ","CENTER_NAME":"EARTH","PERIAPSIS":"546.448"},{"SITE":"AFETR","PERIOD":"95.592","INCLINATION":"53.0551","CLASSIFICATION_TYPE":"U","OBJECT_NAME":"STARLINK-1869","OBJECT_TYPE":"PAYLOAD","GP_ID":"224908977","RA_OF_ASC_NODE":"319.7976","ECCENTRICITY":"0.00011930","LAUNCH_DATE":"2020-11-25","DECAY_DATE":null,"MEAN_MOTION":"15.06407168","TLE_LINE1":"1 47155U 20088AK  23040.16679822  .00006127  00000-0  42975-3 0  9996","APOAPSIS":"548.018","CENTER_NAME":"EARTH","PERIAPSIS":"546.365","REF_FRAME":"TEME","MEAN_MOTION_DDOT":"0.0000000000000","OBJECT_ID":"2020-088AK","MEAN_MOTION_DOT":"0.00006127","TIME_SYSTEM":"UTC","TLE_LINE2":"2 47155  53.0551 319.7976 0001193 115.9844 244.1268 15.06407168122203","MEAN_ELEMENT_THEORY":"SGP4","FILE":"3782313","SEMIMAJOR_AXIS":"6925.327","COUNTRY_CODE":"US","MEAN_ANOMALY":"244.1268","EPHEMERIS_TYPE":"0","NORAD_CAT_ID":"47155","REV_AT_EPOCH":"12220","BSTAR":"0.00042975000000","RCS_SIZE":"LARGE","ELEMENT_SET_NO":"999","EPOCH":"2023-02-09T04:00:11.366208","ARG_OF_PERICENTER":"115.9844"},{"LAUNCH_DATE":"2020-11-25","RA_OF_ASC_NODE":"309.9285","ECCENTRICITY":"0.00016800","TLE_LINE1":"1 47157U 20088AM  23040.13823594  .00012507  00000-0  85690-3 0  9992","APOAPSIS":"548.359","DECAY_DATE":null,"MEAN_MOTION":"15.06405964","SITE":"AFETR","INCLINATION":"53.0533","PERIOD":"95.592","CLASSIFICATION_TYPE":"U","OBJECT_NAME":"STARLINK-1871","OBJECT_TYPE":"PAYLOAD","GP_ID":"224909227","ELEMENT_SET_NO":"999","RCS_SIZE":"LARGE","BSTAR":"0.00085690000000","MEAN_ANOMALY":"250.2131","EPHEMERIS_TYPE":"0","NORAD_CAT_ID":"47157","REV_AT_EPOCH":"12234","ARG_OF_PERICENTER":"109.9039","EPOCH":"2023-02-09T03:19:03.585216","REF_FRAME":"TEME","MEAN_MOTION_DDOT":"0.0000000000000","OBJECT_ID":"2020-088AM","CENTER_NAME":"EARTH","PERIAPSIS":"546.032","FILE":"3782313","MEAN_ELEMENT_THEORY":"SGP4","SEMIMAJOR_AXIS":"6925.330","COUNTRY_CODE":"US","MEAN_MOTION_DOT":"0.00012507","TIME_SYSTEM":"UTC","TLE_LINE2":"2 47157  53.0533 309.9285 0001680 109.9039 250.2131 15.06405964122343"},{"ECCENTRICITY":"0.00011660","RA_OF_ASC_NODE":"296.5493","LAUNCH_DATE":"2020-11-25","DECAY_DATE":null,"MEAN_MOTION":"15.06397899","TLE_LINE1":"1 47158U 20088AN  23040.89109461  .00010435  00000-0  71842-3 0  9998","APOAPSIS":"548.027","OBJECT_NAME":"STARLINK-1873","CLASSIFICATION_TYPE":"U","SITE":"AFETR","INCLINATION":"53.0521","PERIOD":"95.592","OBJECT_TYPE":"PAYLOAD","GP_ID":"224935141","NORAD_CAT_ID":"47158","EPHEMERIS_TYPE":"0","REV_AT_EPOCH":"12284","MEAN_ANOMALY":"241.8139","BSTAR":"0.00071842000000","RCS_SIZE":"LARGE","ELEMENT_SET_NO":"999","EPOCH":"2023-02-09T21:23:10.574304","ARG_OF_PERICENTER":"118.2967","CENTER_NAME":"EARTH","PERIAPSIS":"546.413","REF_FRAME":"TEME","MEAN_MOTION_DDOT":"0.0000000000000","OBJECT_ID":"2020-088AN","MEAN_MOTION_DOT":"0.00010435","TLE_LINE2":"2 47158  53.0521 296.5493 0001166 118.2967 241.8139 15.06397899122841","TIME_SYSTEM":"UTC","SEMIMAJOR_AXIS":"6925.355","COUNTRY_CODE":"US","MEAN_ELEMENT_THEORY":"SGP4","FILE":"3783192"},{"REV_AT_EPOCH":"12259","NORAD_CAT_ID":"47161","EPHEMERIS_TYPE":"0","MEAN_ANOMALY":"294.1066","RCS_SIZE":"LARGE","ELEMENT_SET_NO":"999","BSTAR":"0.00173830000000","EPOCH":"2023-02-09T20:35:24.352800","ARG_OF_PERICENTER":"66.0050","PERIAPSIS":"546.355","CENTER_NAME":"EARTH","OBJECT_ID":"2020-088AR","REF_FRAME":"TEME","MEAN_MOTION_DDOT":"0.0000000000000","TLE_LINE2":"2 47161  53.0514 296.7032 0001218  66.0050 294.1066 15.06404941122598","TIME_SYSTEM":"UTC","MEAN_MOTION_DOT":"0.00025709","COUNTRY_CODE":"US","SEMIMAJOR_AXIS":"6925.333","MEAN_ELEMENT_THEORY":"SGP4","FILE":"3783241","ECCENTRICITY":"0.00012180","RA_OF_ASC_NODE":"296.7032","LAUNCH_DATE":"2020-11-25","MEAN_MOTION":"15.06404941","DECAY_DATE":null,"APOAPSIS":"548.042","TLE_LINE1":"1 47161U 20088AR  23040.85792075  .00025709  00000-0  17383-2 0  9996","OBJECT_NAME":"STARLINK-1876","CLASSIFICATION_TYPE":"U","INCLINATION":"53.0514","PERIOD":"95.592","SITE":"AFETR","GP_ID":"224956431","OBJECT_TYPE":"PAYLOAD"},{"FILE":"3782313","MEAN_ELEMENT_THEORY":"SGP4","COUNTRY_CODE":"US","SEMIMAJOR_AXIS":"6925.348","TIME_SYSTEM":"UTC","TLE_LINE2":"2 47162  53.0527 309.7006 0001138  98.7208 261.3910 15.06400342122356","MEAN_MOTION_DOT":"0.00009345","OBJECT_ID":"2020-088AS","MEAN_MOTION_DDOT":"0.0000000000000","REF_FRAME":"TEME","PERIAPSIS":"546.424","CENTER_NAME":"EARTH","ARG_OF_PERICENTER":"98.7208","EPOCH":"2023-02-09T04:33:22.358304","RCS_SIZE":"LARGE","ELEMENT_SET_NO":"999","BSTAR":"0.00064540000000","MEAN_ANOMALY":"261.3910","REV_AT_EPOCH":"12235","EPHEMERIS_TYPE":"0","NORAD_CAT_ID":"47162","GP_ID":"224909477","OBJECT_TYPE":"PAYLOAD","PERIOD":"95.592","INCLINATION":"53.0527","SITE":"AFETR","CLASSIFICATION_TYPE":"U","OBJECT_NAME":"STARLINK-1877","APOAPSIS":"548.001","TLE_LINE1":"1 47162U 20088AS  23040.18984211  .00009345  00000-0  64540-3 0  9994","MEAN_MOTION":"15.06400342","DECAY_DATE":null,"LAUNCH_DATE":"2020-11-25","ECCENTRICITY":"0.00011380","RA_OF_ASC_NODE":"309.7006"},{"ARG_OF_PERICENTER":"117.9023","EPOCH":"2023-02-09T03:44:16.668672","RCS_SIZE":"LARGE","BSTAR":"0.00178150000000","ELEMENT_SET_NO":"999","MEAN_ANOMALY":"242.2089","REV_AT_EPOCH":"12220","EPHEMERIS_TYPE":"0","NORAD_CAT_ID":"47163","MEAN_ELEMENT_THEORY":"SGP4","FILE":"3782313","COUNTRY_CODE":"US","SEMIMAJOR_AXIS":"6925.348","TLE_LINE2":"2 47163  53.0521 319.8570 0001220 117.9023 242.2089 15.06400151122207","TIME_SYSTEM":"UTC","MEAN_MOTION_DOT":"0.00026354","OBJECT_ID":"2020-088AT","REF_FRAME":"TEME","MEAN_MOTION_DDOT":"0.0000000000000","PERIAPSIS":"546.368","CENTER_NAME":"EARTH","APOAPSIS":"548.058","TLE_LINE1":"1 47163U 20088AT  23040.15574848  .00026354  00000-0  17815-2 0  9994","MEAN_MOTION":"15.06400151","DECAY_DATE":null,"LAUNCH_DATE":"2020-11-25","ECCENTRICITY":"0.00012200","RA_OF_ASC_NODE":"319.8570","GP_ID":"224909727","OBJECT_TYPE":"PAYLOAD","PERIOD":"95.592","INCLINATION":"53.0521","SITE":"AFETR","CLASSIFICATION_TYPE":"U","OBJECT_NAME":"STARLINK-1878"},{"OBJECT_TYPE":"PAYLOAD","GP_ID":"224956921","CLASSIFICATION_TYPE":"U","OBJECT_NAME":"STARLINK-1879","SITE":"AFETR","INCLINATION":"53.0529","PERIOD":"95.592","TLE_LINE1":"1 47164U 20088AU  23040.93993647  .00017880  00000-0  12163-2 0  9998","APOAPSIS":"548.056","DECAY_DATE":null,"MEAN_MOTION":"15.06396004","LAUNCH_DATE":"2020-11-25","ECCENTRICITY":"0.00011990","RA_OF_ASC_NODE":"286.3316","SEMIMAJOR_AXIS":"6925.361","COUNTRY_CODE":"US","FILE":"3783241","MEAN_ELEMENT_THEORY":"SGP4","MEAN_MOTION_DOT":"0.00017880","TIME_SYSTEM":"UTC","TLE_LINE2":"2 47164  53.0529 286.3316 0001199  90.8493 269.2633 15.06396004122741","REF_FRAME":"TEME","MEAN_MOTION_DDOT":"0.0000000000000","OBJECT_ID":"2020-088AU","CENTER_NAME":"EARTH","PERIAPSIS":"546.395","ARG_OF_PERICENTER":"90.8493","EPOCH":"2023-02-09T22:33:30.511008","RCS_SIZE":"LARGE","BSTAR":"0.00121630000000","ELEMENT_SET_NO":"999","NORAD_CAT_ID":"47164","EPHEMERIS_TYPE":"0","REV_AT_EPOCH":"12274","MEAN_ANOMALY":"269.2633"},{"DECAY_DATE":null,"MEAN_MOTION":"15.06393116","TLE_LINE1":"1 47165U 20088AV  23040.87911496  .00020605  00000-0  13984-2 0  9995","APOAPSIS":"548.101","ECCENTRICITY":"0.00012510","RA_OF_ASC_NODE":"306.6017","LAUNCH_DATE":"2020-11-25","OBJECT_TYPE":"PAYLOAD","GP_ID":"224935191","SITE":"AFETR","INCLINATION":"53.0541","PERIOD":"95.593","OBJECT_NAME":"STARLINK-1880","CLASSIFICATION_TYPE":"U","EPOCH":"2023-02-09T21:05:55.532544","ARG_OF_PERICENTER":"113.0267","MEAN_ANOMALY":"247.0854","NORAD_CAT_ID":"47165","EPHEMERIS_TYPE":"0","REV_AT_EPOCH":"12270","RCS_SIZE":"LARGE","ELEMENT_SET_NO":"999","BSTAR":"0.00139840000000","MEAN_MOTION_DOT":"0.00020605","TLE_LINE2":"2 47165  53.0541 306.6017 0001251 113.0267 247.0854 15.06393116122702","TIME_SYSTEM":"UTC","MEAN_ELEMENT_THEORY":"SGP4","FILE":"3783195","SEMIMAJOR_AXIS":"6925.370","COUNTRY_CODE":"US","CENTER_NAME":"EARTH","PERIAPSIS":"546.368","MEAN_MOTION_DDOT":"0.0000000000000","REF_FRAME":"TEME","OBJECT_ID":"2020-088AV"},{"RCS_SIZE":"LARGE","BSTAR":"0.00135600000000","ELEMENT_SET_NO":"999","EPHEMERIS_TYPE":"0","NORAD_CAT_ID":"47166","REV_AT_EPOCH":"130","MEAN_ANOMALY":"2.6144","ARG_OF_PERICENTER":"355.0696","EPOCH":"2023-02-10T00:00:00.999648","MEAN_MOTION_DDOT":"0.0000000000000","REF_FRAME":"TEME","OBJECT_ID":"2020-088AW","CENTER_NAME":"EARTH","PERIAPSIS":"340.824","SEMIMAJOR_AXIS":"6722.985","COUNTRY_CODE":"US","MEAN_ELEMENT_THEORY":"SGP4","FILE":"3783241","MEAN_MOTION_DOT":"0.00209735","TLE_LINE2":"2 47166  53.0393 132.4408 0005988 355.0696   2.6144 15.74923824  1301","TIME_SYSTEM":"UTC","LAUNCH_DATE":"2020-11-25","RA_OF_ASC_NODE":"132.4408","ECCENTRICITY":"0.00059880","TLE_LINE1":"1 47166U 20088AW  23041.00001157  .00209735  00000-0  13560-2 0  9999","APOAPSIS":"348.876","DECAY_DATE":null,"MEAN_MOTION":"15.74923824","OBJECT_NAME":"STARLINK-1881","CLASSIFICATION_TYPE":"U","SITE":"AFETR","PERIOD":"91.433","INCLINATION":"53.0393","OBJECT_TYPE":"PAYLOAD","GP_ID":"224957181"}];
